[{"OBJECT_NAME":"PLATERO","OBJECT_ID":"2023-174G","EPOCH":"2026-03-09T19:23:55.165632","MEAN_MOTION":15.56496831,"ECCENTRICITY":0.0006112,"INCLINATION":97.3931,"RA_OF_ASC_NODE":162.7692,"ARG_OF_PERICENTER":118.0028,"MEAN_ANOMALY":242.1845,"EPHEMERIS_TYPE":0,"CLASSIFICATION_TYPE":"U","NORAD_CAT_ID":58262,"ELEMENT_SET_NO":999,"REV_AT_EPOCH":13069,"BSTAR":0.00046244515,"MEAN_MOTION_DOT":0.0003276,"MEAN_MOTION_DDOT":0},{"OBJECT_NAME":"STARLINK-36411","OBJECT_ID":"2026-018V","EPOCH":"2026-03-09T22:00:01.999584","MEAN_MOTION":15.67971657,"ECCENTRICITY":0.00018908,"INCLINATION":97.2839,"RA_OF_ASC_NODE":134.8178,"ARG_OF_PERICENTER":74.0997,"MEAN_ANOMALY":109.8922,"EPHEMERIS_TYPE":0,"CLASSIFICATION_TYPE":"U","NORAD_CAT_ID":67608,"ELEMENT_SET_NO":999,"REV_AT_EPOCH":604,"BSTAR":-0.020003062,"MEAN_MOTION_DOT":-0.01951575,"MEAN_MOTION_DDOT":0}]
